NORAD_CAT_ID,OBJECT_NAME,OBJECT_TYPE,EPOCH,MEAN_MOTION,ECCENTRICITY,INCLINATION,RA_OF_ASC_NODE,ARG_OF_PERICENTER,MEAN_ANOMALY,BSTAR,MEAN_MOTION_DOT,MEAN_MOTION_DDOT,TLE_LINE0,TLE_LINE1,TLE_LINE2,SEMIMAJOR_AXIS,PERIOD,APOGEE,PERIGEE,DECAYED
55775.0,STARLINK-5809,PAYLOAD,2023-05-13 12:58:53,15.69918053,0.0002799,70.0003,316.1846,277.2741,82.8137,1.3088e-05,1.361e-05,0.0,0 STARLINK-5809,1 55775U 23028AL  23133.54089977  .00001361  00000-0  13088-4 0  9990,2 55775  70.0003 316.1846 0002799 277.2741  82.8137 15.69918053 11780,6737.268,91.725,361.019,357.248,0.0
55775.0,STARLINK-5809,PAYLOAD,2023-05-13 16:02:23,15.69920017,0.000259,70.0009,315.8284,269.8939,90.1959,1.604e-06,-1.9e-07,0.0,0 STARLINK-5809,1 55775U 23028AL  23133.66833234 -.00000019  00000-0  16040-5 0  9998,2 55775  70.0009 315.8284 0002590 269.8939  90.1959 15.69920017 11791,6737.263,91.724,360.873,357.383,0.0
55775.0,STARLINK-5809,PAYLOAD,2023-05-13 20:37:39,15.69925582,0.0002736,70.0007,315.2916,263.5423,96.5461,8.6424e-06,8.27e-06,0.0,0 STARLINK-5809,1 55775U 23028AL  23133.85947993  .00000827  00000-0  86424-5 0  9996,2 55775  70.0007 315.2916 0002736 263.5423  96.5461 15.69925582 11831,6737.247,91.724,360.955,357.269,0.0
55775.0,STARLINK-5809,PAYLOAD,2023-05-13 23:41:08,15.69932507,0.0003427,69.999,314.9322,269.1424,90.9379,1.8034e-05,1.957e-05,0.0,0 STARLINK-5809,1 55775U 23028AL  23133.98690841  .00001957  00000-0  18034-4 0  9993,2 55775  69.9990 314.9322 0003427 269.1424  90.9379 15.69932507 11849,6737.227,91.724,361.401,356.783,0.0
55775.0,STARLINK-5809,PAYLOAD,2023-05-14 05:48:09,15.69925137,0.000336,69.9994,314.2153,271.2365,88.8446,2.3899e-05,2.662e-05,0.0,0 STARLINK-5809,1 55775U 23028AL  23134.24177923  .00002662  00000-0  23899-4 0  9993,2 55775  69.9994 314.2153 0003360 271.2365  88.8446 15.69925137 11888,6737.248,91.724,361.377,356.849,0.0
55775.0,STARLINK-5809,PAYLOAD,2023-05-14 13:26:54,15.69933212,0.0003343,69.9992,313.3195,271.4398,88.6415,1.2234e-05,1.259e-05,0.0,0 STARLINK-5809,1 55775U 23028AL  23134.56035715  .00001259  00000-0  12234-4 0  9992,2 55775  69.9992 313.3195 0003343 271.4398  88.6415 15.69933212 11945,6737.225,91.724,361.342,356.838,0.0
55775.0,STARLINK-5809,PAYLOAD,2023-05-14 21:05:40,15.69923843,0.0003747,69.9987,312.4232,264.4411,95.6357,-7.7978e-06,-1.151e-05,0.0,0 STARLINK-5809,1 55775U 23028AL  23134.87894291 -.00001151  00000-0 -77978-5 0  9998,2 55775  69.9987 312.4232 0003747 264.4411  95.6357 15.69923843 11994,6737.252,91.724,361.641,356.592,0.0
55775.0,STARLINK-5809,PAYLOAD,2023-05-15 10:51:27,15.69913086,0.0003595,69.9963,310.8108,270.8646,89.2137,1.0449e-05,1.043e-05,0.0,0 STARLINK-5809,1 55775U 23028AL  23135.45240319  .00001043  00000-0  10449-4 0  9996,2 55775  69.9963 310.8108 0003595 270.8646  89.2137 15.69913086 12077,6737.283,91.725,361.57,356.726,0.0
55775.0,STARLINK-5809,PAYLOAD,2023-05-15 12:23:12,15.69912732,0.0003633,69.9964,310.6317,270.1995,89.8785,1.0979e-05,1.107e-05,0.0,0 STARLINK-5809,1 55775U 23028AL  23135.51611970  .00001107  00000-0  10979-4 0  9997,2 55775  69.9964 310.6317 0003633 270.1995  89.8785 15.69912732 12095,6737.284,91.725,361.596,356.701,0.0
55775.0,STARLINK-5809,PAYLOAD,2023-05-15 18:30:12,15.69920098,0.0003604,69.9974,309.9147,268.5672,91.5111,9.8022e-06,9.66e-06,0.0,0 STARLINK-5809,1 55775U 23028AL  23135.77098327  .00000966  00000-0  98022-5 0  9998,2 55775  69.9974 309.9147 0003604 268.5672  91.5111 15.69920098 12131,6737.263,91.724,361.556,356.699,0.0
55775.0,STARLINK-5809,PAYLOAD,2023-05-16 05:12:28,15.69930094,0.0003556,69.9971,308.6603,274.0043,86.0746,6.0618e-06,5.16e-06,0.0,0 STARLINK-5809,1 55775U 23028AL  23136.21699437  .00000516  00000-0  60618-5 0  9998,2 55775  69.9971 308.6603 0003556 274.0043  86.0746 15.69930094 12197,6737.234,91.724,361.495,356.703,0.0
55775.0,STARLINK-5809,PAYLOAD,2023-05-16 12:51:13,15.69933857,0.0003029,69.9978,307.7646,269.1868,90.8981,-4.957e-06,-8.09e-06,0.0,0 STARLINK-5809,1 55775U 23028AL  23136.53557835 -.00000809  00000-0 -49570-5 0  9999,2 55775  69.9978 307.7646 0003029 269.1868  90.8981 15.69933857 12257,6737.223,91.724,361.129,357.048,0.0
55775.0,STARLINK-5809,PAYLOAD,2023-05-16 17:26:28,15.69943005,0.0002909,69.9972,307.2258,262.9065,97.18,-6.1457e-07,-2.87e-06,0.0,0 STARLINK-5809,1 55775U 23028AL  23136.72672029 -.00000287  00000-0 -61457-6 0  9992,2 55775  69.9972 307.2258 0002909 262.9065  97.1800 15.69943005 12279,6737.197,91.723,361.022,357.102,0.0
55775.0,STARLINK-5809,PAYLOAD,2023-05-16 22:01:44,15.69929442,0.0003621,69.9973,306.689,261.3442,98.7344,2.2284e-05,2.468e-05,0.0,0 STARLINK-5809,1 55775U 23028AL  23136.91787390  .00002468  00000-0  22284-4 0  9995,2 55775  69.9973 306.6890 0003621 261.3442  98.7344 15.69929442 12302,6737.236,91.724,361.54,356.661,0.0
55775.0,STARLINK-5809,PAYLOAD,2023-05-17 17:54:31,15.69929586,0.0002886,69.9992,304.3616,266.1452,93.9414,1.8425e-05,2.004e-05,0.0,0 STARLINK-5809,1 55775U 23028AL  23137.74619503  .00002004  00000-0  18425-4 0  9995,2 55775  69.9992 304.3616 0002886 266.1452  93.9414 15.69929586 12438,6737.235,91.724,361.045,357.156,0.0
55775.0,STARLINK-5809,PAYLOAD,2023-05-17 20:58:01,15.69929111,0.000361,69.9973,304.0014,268.8326,91.2456,1.6221e-05,1.738e-05,0.0,0 STARLINK-5809,1 55775U 23028AL  23137.87362938  .00001738  00000-0  16221-4 0  9991,2 55775  69.9973 304.0014 0003610 268.8326  91.2456 15.69929111 12465,6737.237,91.724,361.534,356.67,0.0
55775.0,STARLINK-5809,PAYLOAD,2023-05-18 12:15:33,15.69922206,0.0003496,69.9976,302.2114,268.2557,91.8238,5.1965e-06,4.12e-06,0.0,0 STARLINK-5809,1 55775U 23028AL  23138.51080246  .00000412  00000-0  51965-5 0  9995,2 55775  69.9976 302.2114 0003496 268.2557  91.8238 15.69922206 12553,6737.257,91.724,361.477,356.766,0.0
55775.0,STARLINK-5809,PAYLOAD,2023-05-18 22:57:48,15.69936514,0.0003467,69.9976,300.9572,268.5903,91.4896,5.3611e-06,4.32e-06,0.0,0 STARLINK-5809,1 55775U 23028AL  23138.95680922  .00000432  00000-0  53611-5 0  9992,2 55775  69.9976 300.9572 0003467 268.5903  91.4896 15.69936514 12623,6737.216,91.723,361.416,356.745,0.0
55775.0,STARLINK-5809,PAYLOAD,2023-05-19 20:22:20,15.69932918,0.0003665,69.9982,298.4507,266.5268,93.5508,1.0724e-05,1.077e-05,0.0,0 STARLINK-5809,1 55775U 23028AL  23139.84884428  .00001077  00000-0  10724-4 0  9991,2 55775  69.9982 298.4507 0003665 266.5268  93.5508 15.69932918 12774,6737.226,91.724,361.56,356.622,0.0
55775.0,STARLINK-5809,PAYLOAD,2023-05-20 10:08:06,15.69924653,0.0003763,69.9972,296.8373,270.0885,89.988,1.1889e-05,1.217e-05,0.0,0 STARLINK-5809,1 55775U 23028AL  23140.42230074  .00001217  00000-0  11889-4 0  9998,2 55775  69.9972 296.8373 0003763 270.0885  89.9880 15.69924653 12858,6737.25,91.724,361.65,356.579,0.0
55775.0,STARLINK-5809,PAYLOAD,2023-05-20 17:46:49,15.69960084,0.0003856,69.9989,295.9407,279.4874,80.5886,3.8694e-05,4.449e-05,0.0,0 STARLINK-5809,1 55775U 23028AL  23140.74085495  .00004449  00000-0  38694-4 0  9991,2 55775  69.9989 295.9407 0003856 279.4874  80.5886 15.69960084 12905,6737.148,91.722,361.611,356.415,0.0
55775.0,STARLINK-5809,PAYLOAD,2023-05-20 19:18:38,15.69911721,0.0003898,69.9989,295.7616,268.8967,91.1782,-1.7281e-05,-2.29e-05,0.0,0 STARLINK-5809,1 55775U 23028AL  23140.80460858 -.00002290  00000-0 -17281-4 0  9991,2 55775  69.9989 295.7616 0003898 268.8967  91.1782 15.69911721 12925,6737.287,91.725,361.778,356.525,0.0
55775.0,STARLINK-5809,PAYLOAD,2023-05-21 10:36:10,15.69903996,0.0003436,69.9996,293.9712,277.9873,82.0933,-1.0418e-05,-1.464e-05,0.0,0 STARLINK-5809,1 55775U 23028AL  23141.44178687 -.00001464  00000-0 -10418-4 0  9995,2 55775  69.9996 293.9712 0003436 277.9873  82.0933 15.69903996 13029,6737.309,91.725,361.489,356.859,0.0
55775.0,STARLINK-5809,PAYLOAD,2023-05-21 16:43:09,15.69928955,0.0003677,69.9984,293.2557,270.5997,89.4777,6.4626e-06,5.64e-06,0.0,0 STARLINK-5809,1 55775U 23028AL  23141.69663621  .00000564  00000-0  64626-5 0  9998,2 55775  69.9984 293.2557 0003677 270.5997  89.4777 15.69928955 13051,6737.237,91.724,361.58,356.625,0.0
55775.0,STARLINK-5809,PAYLOAD,2023-05-21 19:46:39,15.69927724,0.0003531,69.9994,292.8982,269.934,90.1451,5.7342e-06,4.77e-06,0.0,0 STARLINK-5809,1 55775U 23028AL  23141.82407072  .00000477  00000-0  57342-5 0  9999,2 55775  69.9994 292.8982 0003531 269.9340  90.1451 15.69927724 13086,6737.241,91.724,361.485,356.727,0.0
55775.0,STARLINK-5809,PAYLOAD,2023-05-22 03:25:24,15.69935768,0.0003588,69.9987,292.0021,270.2939,89.7845,2.5303e-05,2.832e-05,0.0,0 STARLINK-5809,1 55775U 23028AL  23142.14264483  .00002832  00000-0  25303-4 0  9990,2 55775  69.9987 292.0021 0003588 270.2939  89.7845 15.69935768 13128,6737.218,91.723,361.5,356.665,0.0
55775.0,STARLINK-5809,PAYLOAD,2023-05-22 09:32:25,15.69932336,0.0003472,69.9988,291.285,273.3301,86.7498,8.4426e-06,8.03e-06,0.0,0 STARLINK-5809,1 55775U 23028AL  23142.39751674  .00000803  00000-0  84426-5 0  9998,2 55775  69.9988 291.2850 0003472 273.3301  86.7498 15.69932336 13162,6737.228,91.724,361.432,356.753,0.0
55775.0,STARLINK-5809,PAYLOAD,2023-05-22 11:04:10,15.69930517,0.0003596,69.9987,291.1057,272.3927,87.6857,1.3451e-05,1.405e-05,0.0,0 STARLINK-5809,1 55775U 23028AL  23142.46123309  .00001405  00000-0  13451-4 0  9992,2 55775  69.9987 291.1057 0003596 272.3927  87.6857 15.69930517 13189,6737.233,91.724,361.52,356.675,0.0
55775.0,STARLINK-5809,PAYLOAD,2023-05-22 20:14:41,15.6993531,0.0003435,69.9989,290.0316,269.5382,90.542,-1.6064e-05,-2.145e-05,0.0,0 STARLINK-5809,1 55775U 23028AL  23142.84353418 -.00002145  00000-0 -16064-4 0  9997,2 55775  69.9989 290.0316 0003435 269.5382  90.5420 15.69935310 13244,6737.219,91.724,361.398,356.77,0.0
55775.0,STARLINK-5809,PAYLOAD,2023-05-23 13:03:58,15.69912198,0.0003615,69.9994,288.0612,273.5937,86.4845,1.9424e-05,2.122e-05,0.0,0 STARLINK-5809,1 55775U 23028AL  23143.54442927  .00002122  00000-0  19424-4 0  9995,2 55775  69.9994 288.0612 0003615 273.5937  86.4845 15.69912198 13342,6737.285,91.725,361.586,356.715,0.0
